{"type":"FeatureCollection","name":"dong-gu-boundary","bbox":[126.90727075351943,35.07256700250453,126.99786645112515,35.165537637322075],"metadata":{"boundary_version":"2026-07-01","coordinate_system":"WGS84 (EPSG:4326), longitude/latitude","source_url":"https://raw.githubusercontent.com/vuski/admdongkor/dd1881663fcabc69b81393604e91ebf3a4202e9a/ver20260701/HangJeongDong_ver20260701.geojson","source_repository":"https://github.com/vuski/admdongkor","source_commit":"dd1881663fcabc69b81393604e91ebf3a4202e9a","source_file_sha256":"c01ef44a0eb00978662ba7a6240ccb1da287fb52abd85104a1758969d391132f","upstream_source":"통계청 통계지리정보서비스(SGIS), https://sgis.kostat.go.kr","upstream_license":"KOGL Type 1 / 공공누리 제1유형","dataset_license":"CC-BY-4.0","dataset_license_url":"https://creativecommons.org/licenses/by/4.0/","attribution":"통계청 SGIS 공개 행정동 경계(공공누리 제1유형)를 vuski/admdongkor에서 가공한 자료. 가공 데이터는 CC BY 4.0 적용.","changes":"동구 13개 행정동 추출, 원본 속성 유지, dong_key 및 Feature id 추가, 정렬 및 bbox 계산. 경계 좌표와 도형은 변경하지 않음.","usage_note":"공식 원본이 아닌 가공 경계이며 필지별 경계 판정용이 아님."},"features":[{"type":"Feature","properties":{"adm_nm":"전남광주통합특별시 동구 충장동","adm_cd2":"1221052500","sgg":"12210","sido":"12","sidonm":"전남광주통합특별시","sggnm":"동구","adm_cd":"12010510","dong_key":"충장동"},"geometry":{"type":"MultiPolygon","coordinates":[[[[126.91920507407151,35.15325407909361],[126.91917063299555,35.153225637406486],[126.91971301742304,35.15281850488078],[126.92115623098215,35.1517577363807],[126.92216781183716,35.151192988765615],[126.92392414654104,35.149780566865914],[126.92504723757074,35.14884789846159],[126.92507819645617,35.14882218712238],[126.9249284087379,35.14867927537985],[126.92433928111625,35.148117250294305],[126.92223184607597,35.14836306720589],[126.92163654563642,35.148258731979574],[126.92043707299418,35.147760567075274],[126.92040766713363,35.14774639586781],[126.92030762840655,35.1476979708688],[126.91958795655843,35.14734957248512],[126.9189901170621,35.1470601476954],[126.91848365961056,35.14678244341204],[126.91643918776064,35.145798752478726],[126.91375047491458,35.14466523493372],[126.90997195600762,35.148970114785236],[126.90727075351943,35.15148714336995],[126.9083238467657,35.152341562458105],[126.9092110630066,35.1530613551436],[126.9096759024351,35.1534384704622],[126.90991453492704,35.15363207840383],[126.91000910149081,35.15370880244082],[126.91239223232336,35.1556695768937],[126.91244373696419,35.155711953428415],[126.91247359321999,35.155736524497144],[126.91249020595261,35.15577349921196],[126.91255608848113,35.15592015093835],[126.91307295584193,35.15707076416613],[126.91636084030641,35.155063609205726],[126.91920507407151,35.15325407909361]]]]},"id":"1221052500"},{"type":"Feature","properties":{"adm_nm":"전남광주통합특별시 동구 동명동","adm_cd2":"1221054500","sgg":"12210","sido":"12","sidonm":"전남광주통합특별시","sggnm":"동구","adm_cd":"12010540","dong_key":"동명동"},"geometry":{"type":"MultiPolygon","coordinates":[[[[126.92612068401559,35.15260010734861],[126.92625391050164,35.15237063102401],[126.92748661887482,35.15112653761059],[126.92820487619558,35.15086313604953],[126.9287673042497,35.15074644809077],[126.92888847775157,35.15074008157627],[126.92911074011398,35.150744034310165],[126.92934659456361,35.15075216964772],[126.92947506254029,35.150761336334405],[126.93067097372,35.15020784489343],[126.93094797673221,35.15005310491162],[126.93094681514242,35.1499752127371],[126.93093592924,35.149762737543114],[126.93090856774285,35.14962171555336],[126.92984927780988,35.14734263997323],[126.92966488560582,35.1472746013328],[126.9295535652882,35.14722882153227],[126.92910377306285,35.147040381626034],[126.92897690377974,35.14698722871811],[126.92841554682316,35.1467007633809],[126.92788219750862,35.1463867416782],[126.92759953680141,35.14615168066514],[126.92744965669786,35.145966842162885],[126.92433928111625,35.148117250294305],[126.9249284087379,35.14867927537985],[126.92507819645617,35.14882218712238],[126.92504723757074,35.14884789846159],[126.92392414654104,35.149780566865914],[126.92216781183716,35.151192988765615],[126.92115623098215,35.1517577363807],[126.91971301742304,35.15281850488078],[126.91917063299555,35.153225637406486],[126.91920507407151,35.15325407909361],[126.9206665808638,35.15477467458895],[126.9217986475037,35.15531787668966],[126.92182188641328,35.15527006375084],[126.92612068401559,35.15260010734861]]]]},"id":"1221054500"},{"type":"Feature","properties":{"adm_nm":"전남광주통합특별시 동구 계림1동","adm_cd2":"1221056000","sgg":"12210","sido":"12","sidonm":"전남광주통합특별시","sggnm":"동구","adm_cd":"12010560","dong_key":"계림1동"},"geometry":{"type":"MultiPolygon","coordinates":[[[[126.91969435851613,35.16467699324141],[126.91993644941036,35.162904248290424],[126.92053106117123,35.16107361694343],[126.92056019661769,35.15971954296003],[126.92060648115653,35.157568307331545],[126.920655108607,35.15530774944341],[126.9206665808638,35.15477467458895],[126.91920507407151,35.15325407909361],[126.91636084030641,35.155063609205726],[126.91307295584193,35.15707076416613],[126.91300253759128,35.15711263270618],[126.91315760810865,35.15750693112218],[126.91631000428421,35.165537637322075],[126.91969435851613,35.16467699324141]]]]},"id":"1221056000"},{"type":"Feature","properties":{"adm_nm":"전남광주통합특별시 동구 계림2동","adm_cd2":"1221057000","sgg":"12210","sido":"12","sidonm":"전남광주통합특별시","sggnm":"동구","adm_cd":"12010580","dong_key":"계림2동"},"geometry":{"type":"MultiPolygon","coordinates":[[[[126.93017596103344,35.16114427530601],[126.92950715756086,35.16075910418402],[126.9275422941788,35.15962744740609],[126.9253376555768,35.15746966963504],[126.92497387276585,35.15638064652743],[126.9217986475037,35.15531787668966],[126.9206665808638,35.15477467458895],[126.920655108607,35.15530774944341],[126.92060648115653,35.157568307331545],[126.92056019661769,35.15971954296003],[126.92053106117123,35.16107361694343],[126.91993644941036,35.162904248290424],[126.91969435851613,35.16467699324141],[126.91969746248157,35.16479929809703],[126.92217058406352,35.164162126248065],[126.92454200960223,35.1635215315612],[126.92814641769463,35.16250561382292],[126.92835353936267,35.16241307102536],[126.92863000682371,35.162289526117824],[126.9290916477923,35.162037376651874],[126.92959001032179,35.161723561189234],[126.93017596103344,35.16114427530601]]]]},"id":"1221057000"},{"type":"Feature","properties":{"adm_nm":"전남광주통합특별시 동구 산수1동","adm_cd2":"1221059000","sgg":"12210","sido":"12","sidonm":"전남광주통합특별시","sggnm":"동구","adm_cd":"12010590","dong_key":"산수1동"},"geometry":{"type":"MultiPolygon","coordinates":[[[[126.9314961344859,35.160494799967076],[126.93309483231528,35.153190139076955],[126.93310917094219,35.151991455097246],[126.93307517857681,35.15199646373032],[126.93176205131623,35.152189952043],[126.92901166081641,35.152712804811934],[126.92898214649519,35.15284678549583],[126.9289596258544,35.15298388567118],[126.92887913680458,35.15343523761185],[126.92797805727247,35.15332340153515],[126.92754410731622,35.15325681058463],[126.92723847237203,35.15312845462793],[126.92612068401559,35.15260010734861],[126.92182188641328,35.15527006375084],[126.9217986475037,35.15531787668966],[126.92497387276585,35.15638064652743],[126.9253376555768,35.15746966963504],[126.9275422941788,35.15962744740609],[126.92950715756086,35.16075910418402],[126.93017596103344,35.16114427530601],[126.93032365168827,35.161020864610116],[126.930715020553,35.16021364516301],[126.9314961344859,35.160494799967076]]]]},"id":"1221059000"},{"type":"Feature","properties":{"adm_nm":"전남광주통합특별시 동구 산수2동","adm_cd2":"1221060000","sgg":"12210","sido":"12","sidonm":"전남광주통합특별시","sggnm":"동구","adm_cd":"12010610","dong_key":"산수2동"},"geometry":{"type":"MultiPolygon","coordinates":[[[[126.94349398661365,35.158916354896434],[126.94466591479087,35.15592554625694],[126.94243051824375,35.15292620009603],[126.94081384112064,35.15213508749791],[126.94068623078498,35.153156435945405],[126.93702439697013,35.152478613053525],[126.93664673297586,35.15244863333963],[126.93646823428536,35.15243446341464],[126.93622514648119,35.15243161931175],[126.9365102578037,35.15356492364586],[126.93309483231528,35.153190139076955],[126.9314961344859,35.160494799967076],[126.93510423396326,35.1617321725536],[126.93568399611789,35.1617688624889],[126.93874486074871,35.161739426388436],[126.93916233456898,35.16173145450991],[126.93952096596456,35.15902491623716],[126.94349398661365,35.158916354896434]]]]},"id":"1221060000"},{"type":"Feature","properties":{"adm_nm":"전남광주통합특별시 동구 지산1동","adm_cd2":"1221062000","sgg":"12210","sido":"12","sidonm":"전남광주통합특별시","sggnm":"동구","adm_cd":"12010620","dong_key":"지산1동"},"geometry":{"type":"MultiPolygon","coordinates":[[[[126.93309483231528,35.153190139076955],[126.9365102578037,35.15356492364586],[126.93622514648119,35.15243161931175],[126.93649328273189,35.151870604770956],[126.93581317608263,35.1514446674023],[126.93470166590402,35.15146543687132],[126.93390006414512,35.15148041731325],[126.93302906253888,35.14939443005559],[126.93251370285208,35.14806907807466],[126.93249732790544,35.14802696650398],[126.93049963067418,35.14490674252364],[126.92998230297935,35.14469859861585],[126.92986886251,35.144430462984666],[126.92967103849645,35.1444731007485],[126.92945393000079,35.14453532625155],[126.92942338008244,35.14454408225574],[126.92932772564734,35.14460352140805],[126.92779271984548,35.1456346308689],[126.92744965669786,35.145966842162885],[126.92759953680141,35.14615168066514],[126.92788219750862,35.1463867416782],[126.92841554682316,35.1467007633809],[126.92897690377974,35.14698722871811],[126.92910377306285,35.147040381626034],[126.9295535652882,35.14722882153227],[126.92966488560582,35.1472746013328],[126.92984927780988,35.14734263997323],[126.93090856774285,35.14962171555336],[126.93093592924,35.149762737543114],[126.93094681514242,35.1499752127371],[126.93094797673221,35.15005310491162],[126.93067097372,35.15020784489343],[126.92947506254029,35.150761336334405],[126.92934659456361,35.15075216964772],[126.92911074011398,35.150744034310165],[126.92888847775157,35.15074008157627],[126.9287673042497,35.15074644809077],[126.92820487619558,35.15086313604953],[126.92748661887482,35.15112653761059],[126.92625391050164,35.15237063102401],[126.92612068401559,35.15260010734861],[126.92723847237203,35.15312845462793],[126.92754410731622,35.15325681058463],[126.92797805727247,35.15332340153515],[126.92887913680458,35.15343523761185],[126.9289596258544,35.15298388567118],[126.92898214649519,35.15284678549583],[126.92901166081641,35.152712804811934],[126.93176205131623,35.152189952043],[126.93307517857681,35.15199646373032],[126.93310917094219,35.151991455097246],[126.93309483231528,35.153190139076955]]]]},"id":"1221062000"},{"type":"Feature","properties":{"adm_nm":"전남광주통합특별시 동구 지산2동","adm_cd2":"1221063000","sgg":"12210","sido":"12","sidonm":"전남광주통합특별시","sggnm":"동구","adm_cd":"12010630","dong_key":"지산2동"},"geometry":{"type":"MultiPolygon","coordinates":[[[[126.95437573072701,35.14220947465866],[126.95325985586302,35.14239598701523],[126.95215892165889,35.142925277220435],[126.951589536878,35.143249161745445],[126.95141478735276,35.14349831539577],[126.95105023305717,35.14389710965648],[126.9505945059244,35.14423961957072],[126.95032362305588,35.14440508453278],[126.94857725793834,35.144502956468784],[126.94797971125833,35.14402829779466],[126.94767999089079,35.14219450868351],[126.94741103470129,35.14091029694301],[126.94715233494885,35.140536095323384],[126.94675617209143,35.14036569928913],[126.94647340375904,35.14052938826191],[126.94573387262137,35.141702179776665],[126.94391544489928,35.14153072951872],[126.94276796523955,35.14191729010093],[126.9404321108512,35.141691018801296],[126.93890260108593,35.142854864434],[126.9371310697046,35.143086324275075],[126.93569543505211,35.14374576071966],[126.93466199294986,35.144877254746895],[126.9344863616774,35.146130295484554],[126.93311277562175,35.14557041540827],[126.93290400852986,35.14557923432323],[126.93284278318033,35.145809148649136],[126.93241291392859,35.14588550209313],[126.93188961224905,35.145677338326],[126.93159477350427,35.145200860206735],[126.93158526571041,35.14485306532707],[126.93131711101799,35.144827317680075],[126.93124402437104,35.14504737975792],[126.93049963067418,35.14490674252364],[126.93249732790544,35.14802696650398],[126.93251370285208,35.14806907807466],[126.93302906253888,35.14939443005559],[126.93390006414512,35.15148041731325],[126.93470166590402,35.15146543687132],[126.93581317608263,35.1514446674023],[126.93649328273189,35.151870604770956],[126.93622514648119,35.15243161931175],[126.93646823428536,35.15243446341464],[126.93664673297586,35.15244863333963],[126.93702439697013,35.152478613053525],[126.94068623078498,35.153156435945405],[126.94081384112064,35.15213508749791],[126.94243051824375,35.15292620009603],[126.94466591479087,35.15592554625694],[126.94754077333239,35.15452292671938],[126.9494105492741,35.15431766227736],[126.95144096193485,35.15405957189225],[126.95536130743147,35.15196323277375],[126.95562502587553,35.15142432565414],[126.95563172453073,35.15092759319763],[126.95485549618485,35.14890866426416],[126.95560435599863,35.1462646812974],[126.95687798671128,35.144041518758584],[126.9548209499955,35.142765747352485],[126.95437573072701,35.14220947465866]]]]},"id":"1221063000"},{"type":"Feature","properties":{"adm_nm":"전남광주통합특별시 동구 서남동","adm_cd2":"1221065500","sgg":"12210","sido":"12","sidonm":"전남광주통합특별시","sggnm":"동구","adm_cd":"12010640","dong_key":"서남동"},"geometry":{"type":"MultiPolygon","coordinates":[[[[126.92433928111625,35.148117250294305],[126.92744965669786,35.145966842162885],[126.92779271984548,35.1456346308689],[126.92932772564734,35.14460352140805],[126.92942338008244,35.14454408225574],[126.92945393000079,35.14453532625155],[126.92967103849645,35.1444731007485],[126.92986886251,35.144430462984666],[126.92998230297935,35.14469859861585],[126.93049963067418,35.14490674252364],[126.93124402437104,35.14504737975792],[126.93131711101799,35.144827317680075],[126.93158526571041,35.14485306532707],[126.93159477350427,35.145200860206735],[126.93188961224905,35.145677338326],[126.93241291392859,35.14588550209313],[126.93284278318033,35.145809148649136],[126.93290400852986,35.14557923432323],[126.93311277562175,35.14557041540827],[126.9344863616774,35.146130295484554],[126.93466199294986,35.144877254746895],[126.93569543505211,35.14374576071966],[126.9371310697046,35.143086324275075],[126.93644507333286,35.142260289560106],[126.93694177815551,35.139402227191546],[126.93702330799051,35.13795282820191],[126.93592129964384,35.13780076670252],[126.935353926994,35.137073235438635],[126.93440444406535,35.13642228509439],[126.93301755416127,35.136944777330726],[126.93189268563023,35.137144684447186],[126.93148692397433,35.13708809114997],[126.92971058173377,35.13663538621677],[126.92998882573696,35.13435427461682],[126.93000436803334,35.13383517036446],[126.92964828907871,35.13359839589559],[126.9285133272545,35.13390651472419],[126.92830288253856,35.13501244728546],[126.92852355408887,35.135855926556566],[126.92808928074135,35.13656897089777],[126.92813464912517,35.13690224198586],[126.92742507456008,35.13776092120557],[126.9269731785684,35.13758246097507],[126.92500564711645,35.139267812953115],[126.9242195806994,35.13912693957108],[126.92302191046755,35.139700759817735],[126.92467322204384,35.142377452888496],[126.92463631362328,35.14241187706588],[126.92454563559966,35.14249641076857],[126.92346369508971,35.142316771529146],[126.92306809083775,35.14260876212607],[126.92288561716983,35.143117273824195],[126.92268143474901,35.14332201259339],[126.91748786235644,35.14129253605657],[126.91691650218144,35.14198752284595],[126.91595272454103,35.14292609857386],[126.91375047491458,35.14466523493372],[126.91643918776064,35.145798752478726],[126.91848365961056,35.14678244341204],[126.9189901170621,35.1470601476954],[126.91958795655843,35.14734957248512],[126.92030762840655,35.1476979708688],[126.92040766713363,35.14774639586781],[126.92043707299418,35.147760567075274],[126.92163654563642,35.148258731979574],[126.92223184607597,35.14836306720589],[126.92433928111625,35.148117250294305]]]]},"id":"1221065500"},{"type":"Feature","properties":{"adm_nm":"전남광주통합특별시 동구 학동","adm_cd2":"1221068500","sgg":"12210","sido":"12","sidonm":"전남광주통합특별시","sggnm":"동구","adm_cd":"12010680","dong_key":"학동"},"geometry":{"type":"MultiPolygon","coordinates":[[[[126.92964828907871,35.13359839589559],[126.92843148273738,35.133297467041096],[126.92838391196783,35.13318742713845],[126.92912942737671,35.13106874054772],[126.92970690049592,35.129666540845236],[126.92878484870758,35.129176422197474],[126.92757622163535,35.1293397553125],[126.92620394132236,35.13006814128006],[126.9249435117454,35.13284147786898],[126.92311941730375,35.13432754184644],[126.92207751244506,35.135491506564584],[126.92029865525406,35.137942547758904],[126.91748786235644,35.14129253605657],[126.92268143474901,35.14332201259339],[126.92288561716983,35.143117273824195],[126.92306809083775,35.14260876212607],[126.92346369508971,35.142316771529146],[126.92454563559966,35.14249641076857],[126.92463631362328,35.14241187706588],[126.92467322204384,35.142377452888496],[126.92302191046755,35.139700759817735],[126.9242195806994,35.13912693957108],[126.92500564711645,35.139267812953115],[126.9269731785684,35.13758246097507],[126.92742507456008,35.13776092120557],[126.92813464912517,35.13690224198586],[126.92808928074135,35.13656897089777],[126.92852355408887,35.135855926556566],[126.92830288253856,35.13501244728546],[126.9285133272545,35.13390651472419],[126.92964828907871,35.13359839589559]]]]},"id":"1221068500"},{"type":"Feature","properties":{"adm_nm":"전남광주통합특별시 동구 학운동","adm_cd2":"1221071000","sgg":"12210","sido":"12","sidonm":"전남광주통합특별시","sggnm":"동구","adm_cd":"12010710","dong_key":"학운동"},"geometry":{"type":"MultiPolygon","coordinates":[[[[126.95437573072701,35.14220947465866],[126.95499123405453,35.141038050534384],[126.95519625269739,35.140757613890045],[126.95539502205817,35.14064307684265],[126.95547714806314,35.1405957635134],[126.95783030814843,35.14021020263042],[126.95830075828509,35.140347483623195],[126.95869537997005,35.14050345918458],[126.95892304282933,35.14054716375881],[126.9612683702211,35.14065387962178],[126.96162514935489,35.14056674241345],[126.96315861025003,35.13990662652045],[126.96447193597243,35.13924643906139],[126.96577017929148,35.13839296126809],[126.96617255639849,35.13811889497861],[126.96662051210262,35.13775758188132],[126.96731148454737,35.137159449909106],[126.96746331344545,35.1369787814188],[126.96772906365754,35.136741967690746],[126.96810097473713,35.136592537048735],[126.96841977703986,35.13649284240477],[126.97008961759286,35.13636871774379],[126.97043864484827,35.136368807001666],[126.97089404000887,35.136568315871976],[126.97369742360893,35.13781402294039],[126.97798690078041,35.138477163269954],[126.97817563599273,35.138477200652424],[126.98235281350819,35.13671588650295],[126.9849027014248,35.13473748209907],[126.98522876815203,35.13431479433602],[126.98585535989959,35.132757954328795],[126.98787202528352,35.12871443366896],[126.98969289567346,35.12681902282573],[126.99197047016789,35.12418330472114],[126.99323781869474,35.12259740728856],[126.99354140385621,35.12216401039351],[126.99348869320681,35.121362195230446],[126.99373936221284,35.12005711849337],[126.99433676184151,35.119316033254414],[126.989387081386,35.11856039999196],[126.98910201029638,35.11856037102183],[126.9883121074827,35.118809233259604],[126.98668480785135,35.119028712872485],[126.98546734472627,35.119004155146406],[126.98542194604437,35.11899011480402],[126.98347794409406,35.11838880990451],[126.98136989808674,35.11735361303704],[126.98073453577749,35.11699226590056],[126.98011703300978,35.11653329942429],[126.97958866979984,35.11583028305295],[126.97918501088994,35.11521512761602],[126.97892986328488,35.11440963789183],[126.97850235392252,35.11417525363244],[126.97515943323567,35.11267106767776],[126.97346717076014,35.11208491679565],[126.96985068034253,35.112108426982886],[126.96691694270146,35.1125030359508],[126.96257516193349,35.11414678110332],[126.96070148242258,35.114409838517545],[126.96011053179458,35.114414448730656],[126.95429471721263,35.11781471915222],[126.95354591585213,35.118683341468895],[126.95212507308442,35.12108445249503],[126.95169087866465,35.12213379331265],[126.9511734046903,35.123393015509734],[126.94697931012732,35.124909330944504],[126.94663985753182,35.12493668418293],[126.94655758620868,35.124943311230574],[126.94698919968471,35.12537600981462],[126.94727198522598,35.12589383956998],[126.94722234761224,35.12689074148753],[126.9466964940259,35.12776016206323],[126.94581080918536,35.12904241744984],[126.94546036870649,35.12940880257702],[126.94440962238534,35.1296454944977],[126.94369144465313,35.13002607982071],[126.94155337233326,35.13170179637589],[126.94108111662251,35.13215162307443],[126.93928765913579,35.13210417743148],[126.93727738345633,35.132042869191345],[126.93623663340408,35.131908961584614],[126.93526137179764,35.13061737026007],[126.9333565996752,35.13017746399673],[126.93108219818343,35.13033911641968],[126.93039935549471,35.13008488484682],[126.92970690049592,35.129666540845236],[126.92912942737671,35.13106874054772],[126.92838391196783,35.13318742713845],[126.92843148273738,35.133297467041096],[126.92964828907871,35.13359839589559],[126.93000436803334,35.13383517036446],[126.92998882573696,35.13435427461682],[126.92971058173377,35.13663538621677],[126.93148692397433,35.13708809114997],[126.93189268563023,35.137144684447186],[126.93301755416127,35.136944777330726],[126.93440444406535,35.13642228509439],[126.935353926994,35.137073235438635],[126.93592129964384,35.13780076670252],[126.93702330799051,35.13795282820191],[126.93694177815551,35.139402227191546],[126.93644507333286,35.142260289560106],[126.9371310697046,35.143086324275075],[126.93890260108593,35.142854864434],[126.9404321108512,35.141691018801296],[126.94276796523955,35.14191729010093],[126.94391544489928,35.14153072951872],[126.94573387262137,35.141702179776665],[126.94647340375904,35.14052938826191],[126.94675617209143,35.14036569928913],[126.94715233494885,35.140536095323384],[126.94741103470129,35.14091029694301],[126.94767999089079,35.14219450868351],[126.94797971125833,35.14402829779466],[126.94857725793834,35.144502956468784],[126.95032362305588,35.14440508453278],[126.9505945059244,35.14423961957072],[126.95105023305717,35.14389710965648],[126.95141478735276,35.14349831539577],[126.951589536878,35.143249161745445],[126.95215892165889,35.142925277220435],[126.95325985586302,35.14239598701523],[126.95437573072701,35.14220947465866]]]]},"id":"1221071000"},{"type":"Feature","properties":{"adm_nm":"전남광주통합특별시 동구 지원1동","adm_cd2":"1221073000","sgg":"12210","sido":"12","sidonm":"전남광주통합특별시","sggnm":"동구","adm_cd":"12010720","dong_key":"지원1동"},"geometry":{"type":"MultiPolygon","coordinates":[[[[126.94655758620868,35.124943311230574],[126.94589567642261,35.12472660037437],[126.94569490853037,35.12470076447471],[126.94553262632878,35.12470069036363],[126.94534497538295,35.124741670274304],[126.94525049357131,35.12478724136845],[126.9447503459856,35.12508322277116],[126.94413217958376,35.12562990460814],[126.94280883188704,35.12623927737321],[126.9425142694082,35.126304666575194],[126.94179307359185,35.126323949450516],[126.9410249714304,35.12602089899234],[126.9406268139608,35.125509688342504],[126.94025133664815,35.12518017305488],[126.93911284690306,35.12440630234109],[126.93804886054338,35.12406713146571],[126.9366884771494,35.12423714131234],[126.93643211848448,35.12337391748164],[126.93585889600787,35.123508392297346],[126.93585200661342,35.124507533737024],[126.93237672515245,35.12360968459474],[126.93289091187805,35.12167251932577],[126.93109849866686,35.12225186887769],[126.93081104501972,35.12324369122804],[126.93026451084168,35.12429538986958],[126.93005298950567,35.12512905730508],[126.92987199920745,35.12621048288016],[126.92738654324837,35.127935552128456],[126.92757622163535,35.1293397553125],[126.92878484870758,35.129176422197474],[126.92970690049592,35.129666540845236],[126.93039935549471,35.13008488484682],[126.93108219818343,35.13033911641968],[126.9333565996752,35.13017746399673],[126.93526137179764,35.13061737026007],[126.93623663340408,35.131908961584614],[126.93727738345633,35.132042869191345],[126.93928765913579,35.13210417743148],[126.94108111662251,35.13215162307443],[126.94155337233326,35.13170179637589],[126.94369144465313,35.13002607982071],[126.94440962238534,35.1296454944977],[126.94546036870649,35.12940880257702],[126.94581080918536,35.12904241744984],[126.9466964940259,35.12776016206323],[126.94722234761224,35.12689074148753],[126.94727198522598,35.12589383956998],[126.94698919968471,35.12537600981462],[126.94655758620868,35.124943311230574]]]]},"id":"1221073000"},{"type":"Feature","properties":{"adm_nm":"전남광주통합특별시 동구 지원2동","adm_cd2":"1221074000","sgg":"12210","sido":"12","sidonm":"전남광주통합특별시","sggnm":"동구","adm_cd":"12010730","dong_key":"지원2동"},"geometry":{"type":"MultiPolygon","coordinates":[[[[126.94655758620868,35.124943311230574],[126.94663985753182,35.12493668418293],[126.94697931012732,35.124909330944504],[126.9511734046903,35.123393015509734],[126.95169087866465,35.12213379331265],[126.95212507308442,35.12108445249503],[126.95354591585213,35.118683341468895],[126.95429471721263,35.11781471915222],[126.96011053179458,35.114414448730656],[126.96070148242258,35.114409838517545],[126.96257516193349,35.11414678110332],[126.96691694270146,35.1125030359508],[126.96985068034253,35.112108426982886],[126.97346717076014,35.11208491679565],[126.97515943323567,35.11267106767776],[126.97850235392252,35.11417525363244],[126.97892986328488,35.11440963789183],[126.97918501088994,35.11521512761602],[126.97958866979984,35.11583028305295],[126.98011703300978,35.11653329942429],[126.98073453577749,35.11699226590056],[126.98136989808674,35.11735361303704],[126.98347794409406,35.11838880990451],[126.98542194604437,35.11899011480402],[126.98546734472627,35.119004155146406],[126.98668480785135,35.119028712872485],[126.9883121074827,35.118809233259604],[126.98910201029638,35.11856037102183],[126.989387081386,35.11856039999196],[126.99433676184151,35.119316033254414],[126.99756784053758,35.11457102409324],[126.99786645112515,35.11202326956386],[126.99439897085793,35.111750833745084],[126.99041707517138,35.111035081433144],[126.98934655603261,35.11073925224045],[126.98873417915688,35.10994455012081],[126.98635173598795,35.10594533004173],[126.98656407207233,35.10505004904502],[126.98749087175106,35.1031613915163],[126.98875411012526,35.101279807178834],[126.98851316663713,35.09695927283343],[126.98850375201002,35.096821717597976],[126.98838029846704,35.09525315585234],[126.98834593605572,35.095034909685744],[126.98825740128039,35.0949299088398],[126.98817352579273,35.09485482134311],[126.98786219443338,35.09458455137737],[126.98779125015605,35.094522995307365],[126.98768348017296,35.09442950887091],[126.98753421525217,35.094311657484916],[126.98740660698317,35.0942126937791],[126.98730146113428,35.09416739236927],[126.98719474161402,35.094134792121864],[126.98023839498684,35.092157081481254],[126.97568469628871,35.09177385317946],[126.97560297957855,35.091804111308114],[126.97549342139388,35.09183140493356],[126.97538210862422,35.09182893599206],[126.97420508825668,35.09179794585313],[126.97409728882842,35.09177268833495],[126.96668552019439,35.08957839049452],[126.96318026722274,35.08747715764891],[126.96240067838245,35.08682874136123],[126.96075386156193,35.085309680544746],[126.95853202012098,35.08266420279981],[126.95842938041746,35.08225566652646],[126.95860130137513,35.07893778682066],[126.955754747414,35.07595900689457],[126.95553875853237,35.07573413881685],[126.95514645703844,35.075348194225356],[126.95351937620816,35.07417074254317],[126.95182149541388,35.073033355071225],[126.95141359165672,35.07292645502299],[126.9510935958823,35.07287808893695],[126.95075098924306,35.07282631210677],[126.94752729031958,35.0725923648721],[126.94702735526775,35.07256700250453],[126.94691255422781,35.07257317158731],[126.94673403575518,35.07261716196544],[126.9456983221265,35.07302383664989],[126.94395849541962,35.073426035523795],[126.93679936951095,35.07424981243854],[126.93480902170451,35.074332097530394],[126.93265634558519,35.074421211994135],[126.93261658372805,35.074423126083374],[126.93244209403069,35.07443153872368],[126.93240119637986,35.07443574951285],[126.93237573320876,35.07446503446002],[126.93242087535012,35.075422032392886],[126.93252977106715,35.0763143552277],[126.93156976826666,35.07818324961616],[126.9304313278711,35.07866228907196],[126.93006943955109,35.07885208927373],[126.92952761637002,35.07916318508078],[126.9276707288572,35.08036439754142],[126.9275747647448,35.08042809634521],[126.92469700580824,35.084959972615145],[126.92414985289788,35.08609516782389],[126.92411560928538,35.08624774773473],[126.92415328486976,35.08640974675548],[126.9242854234198,35.0868614168809],[126.92450088835862,35.0874694340428],[126.92392422150223,35.08835987564991],[126.92373847399543,35.08858401883611],[126.92211844475104,35.09028276711967],[126.92193207477685,35.09045201075178],[126.92089089859878,35.09125885922471],[126.92062430036873,35.09138234781866],[126.92042938327812,35.09142331538583],[126.92028393865738,35.091453878041634],[126.91986968296904,35.09149937655766],[126.91946510227653,35.091531203995416],[126.91922318090944,35.091531670377485],[126.91925919220435,35.09198369928857],[126.91968296681253,35.09354788102302],[126.91986637919061,35.09393821367354],[126.92006279388015,35.09427418615463],[126.9204172466114,35.09460702565736],[126.92059223755214,35.09486402010224],[126.92112526278568,35.09707446366032],[126.91753646320532,35.102309737724255],[126.91589372953875,35.103975754287056],[126.9148330058614,35.10478536093503],[126.9144992852387,35.10545280464745],[126.91404854761403,35.106321397874886],[126.91406027764204,35.10664103039218],[126.91422855266688,35.1075504061702],[126.91401016153574,35.10787315023376],[126.91416919102274,35.108740865843345],[126.91388724422461,35.10906330245516],[126.91331220542189,35.109488771709636],[126.91246626547164,35.11046651796314],[126.91227226736666,35.1127008370616],[126.91313988852231,35.11476134737857],[126.9121023470959,35.11570300437242],[126.91412295393978,35.11636892267907],[126.91691899227665,35.11695020924615],[126.91756331820402,35.117110471528946],[126.91886387644495,35.11768065812667],[126.9188878279385,35.117702884707576],[126.91891456282296,35.11772769540454],[126.91933766524565,35.118120396390545],[126.92009040989844,35.11935937436712],[126.921839738956,35.11983747077373],[126.92288098957067,35.12095915606825],[126.9227268675532,35.12252575249291],[126.92455435692773,35.12374912340466],[126.92430942861036,35.12466876660601],[126.92987199920745,35.12621048288016],[126.93005298950567,35.12512905730508],[126.93026451084168,35.12429538986958],[126.93081104501972,35.12324369122804],[126.93109849866686,35.12225186887769],[126.93289091187805,35.12167251932577],[126.93237672515245,35.12360968459474],[126.93585200661342,35.124507533737024],[126.93585889600787,35.123508392297346],[126.93643211848448,35.12337391748164],[126.9366884771494,35.12423714131234],[126.93804886054338,35.12406713146571],[126.93911284690306,35.12440630234109],[126.94025133664815,35.12518017305488],[126.9406268139608,35.125509688342504],[126.9410249714304,35.12602089899234],[126.94179307359185,35.126323949450516],[126.9425142694082,35.126304666575194],[126.94280883188704,35.12623927737321],[126.94413217958376,35.12562990460814],[126.9447503459856,35.12508322277116],[126.94525049357131,35.12478724136845],[126.94534497538295,35.124741670274304],[126.94553262632878,35.12470069036363],[126.94569490853037,35.12470076447471],[126.94589567642261,35.12472660037437],[126.94655758620868,35.124943311230574]]]]},"id":"1221074000"}]}
